{
  "norad_id": 61671,
  "name": "STARLINK-32453",
  "history": [
    {
      "epoch": "2026-04-11T20:11:20.683104Z",
      "apogee_km": 475.8712669864217,
      "perigee_km": 474.6294331985846,
      "latitude_deg": 3.657368336788404e-05,
      "longitude_deg": 154.03433309139655,
      "height_km": 476.2348459074699,
      "semi_major_axis_km": 6853.387350092503,
      "eccentricity": 9.06e-05,
      "inclination_deg": 53.1592,
      "raan_deg": 296.9254,
      "arg_perigee_deg": 97.9629,
      "mean_anomaly_deg": 262.1475,
      "mean_motion_rev_day": 15.30188184
    },
    {
      "epoch": "2026-04-13T05:06:27.870912Z",
      "apogee_km": 475.8971623745583,
      "perigee_km": 474.56048190460933,
      "latitude_deg": 4.3990600258296245e-05,
      "longitude_deg": 12.531467323140827,
      "height_km": 476.1217437716943,
      "semi_major_axis_km": 6853.3658221395835,
      "eccentricity": 9.752e-05,
      "inclination_deg": 53.1593,
      "raan_deg": 290.5544,
      "arg_perigee_deg": 89.5312,
      "mean_anomaly_deg": 270.5801,
      "mean_motion_rev_day": 15.30195394
    },
    {
      "epoch": "2026-04-14T18:43:43.511808Z",
      "apogee_km": 475.79079006359007,
      "perigee_km": 474.5667878636823,
      "latitude_deg": -1.2734193751247966e-06,
      "longitude_deg": 159.3895248039193,
      "height_km": 476.0617096847114,
      "semi_major_axis_km": 6853.315788963636,
      "eccentricity": 8.93e-05,
      "inclination_deg": 53.1598,
      "raan_deg": 283.2727,
      "arg_perigee_deg": 88.5351,
      "mean_anomaly_deg": 271.5752,
      "mean_motion_rev_day": 15.30212151
    },
    {
      "epoch": "2026-04-15T18:14:32.164800Z",
      "apogee_km": 475.8284929500405,
      "perigee_km": 474.63874781034247,
      "latitude_deg": 1.3950512581413817e-05,
      "longitude_deg": 161.17055146341258,
      "height_km": 476.03524163887016,
      "semi_major_axis_km": 6853.370620380191,
      "eccentricity": 8.68e-05,
      "inclination_deg": 53.16,
      "raan_deg": 278.7221,
      "arg_perigee_deg": 80.6148,
      "mean_anomaly_deg": 279.4951,
      "mean_motion_rev_day": 15.30193787
    },
    {
      "epoch": "2026-04-16T19:19:23.215584Z",
      "apogee_km": 475.8189482190637,
      "perigee_km": 474.6141286670054,
      "latitude_deg": -4.3472705994654e-06,
      "longitude_deg": 139.07359442952193,
      "height_km": 476.01655315631865,
      "semi_major_axis_km": 6853.353538443034,
      "eccentricity": 8.79e-05,
      "inclination_deg": 53.1592,
      "raan_deg": 273.8679,
      "arg_perigee_deg": 80.5876,
      "mean_anomaly_deg": 279.5224,
      "mean_motion_rev_day": 15.30199508
    },
    {
      "epoch": "2026-04-17T20:24:14.899680Z",
      "apogee_km": 475.87079033823557,
      "perigee_km": 474.5966116575064,
      "latitude_deg": 4.2168942279050767e-07,
      "longitude_deg": 116.97370790662116,
      "height_km": 475.8874159733354,
      "semi_major_axis_km": 6853.370700997871,
      "eccentricity": 9.296e-05,
      "inclination_deg": 53.1603,
      "raan_deg": 269.0134,
      "arg_perigee_deg": 67.3886,
      "mean_anomaly_deg": 292.7213,
      "mean_motion_rev_day": 15.3019376
    },
    {
      "epoch": "2026-04-18T19:55:02.272224Z",
      "apogee_km": 475.9278094164165,
      "perigee_km": 474.46654150352515,
      "latitude_deg": -5.179973106141535e-05,
      "longitude_deg": 118.75923243897493,
      "height_km": 475.8658921592005,
      "semi_major_axis_km": 6853.3341754599705,
      "eccentricity": 0.00010661,
      "inclination_deg": 53.1613,
      "raan_deg": 264.462,
      "arg_perigee_deg": 71.663,
      "mean_anomaly_deg": 288.4486,
      "mean_motion_rev_day": 15.30205993
    },
    {
      "epoch": "2026-04-20T14:14:28.841568Z",
      "apogee_km": 476.05375824361727,
      "perigee_km": 474.39236669727234,
      "latitude_deg": 5.528440730419039e-05,
      "longitude_deg": -166.03198279988442,
      "height_km": 476.2359291847154,
      "semi_major_axis_km": 6853.360062470444,
      "eccentricity": 0.00012121,
      "inclination_deg": 53.1599,
      "raan_deg": 256.2696,
      "arg_perigee_deg": 97.9379,
      "mean_anomaly_deg": 262.176,
      "mean_motion_rev_day": 15.30197323
    },
    {
      "epoch": "2026-04-21T15:19:20.006400Z",
      "apogee_km": 476.0249144759937,
      "perigee_km": 474.4349333496457,
      "latitude_deg": 3.672346723935201e-06,
      "longitude_deg": 171.87115427124826,
      "height_km": 476.21037999293617,
      "semi_major_axis_km": 6853.366923912819,
      "eccentricity": 0.000116,
      "inclination_deg": 53.1601,
      "raan_deg": 251.416,
      "arg_perigee_deg": 95.936,
      "mean_anomaly_deg": 264.1773,
      "mean_motion_rev_day": 15.30195025
    },
    {
      "epoch": "2026-04-22T08:33:56.023488Z",
      "apogee_km": 475.9705049036429,
      "perigee_km": 474.5503438893584,
      "latitude_deg": -2.8472201364517005e-05,
      "longitude_deg": -90.8229014228211,
      "height_km": 476.1888026011947,
      "semi_major_axis_km": 6853.3974243965,
      "eccentricity": 0.00010361,
      "inclination_deg": 53.1607,
      "raan_deg": 248.0802,
      "arg_perigee_deg": 92.4143,
      "mean_anomaly_deg": 267.6976,
      "mean_motion_rev_day": 15.3018481
    },
    {
      "epoch": "2026-04-23T01:48:30.489696Z",
      "apogee_km": 475.9599396490912,
      "perigee_km": 474.498116675285,
      "latitude_deg": 1.01820017160506e-05,
      "longitude_deg": 6.489175439685654,
      "height_km": 476.1052687491827,
      "semi_major_axis_km": 6853.366028162188,
      "eccentricity": 0.00010665,
      "inclination_deg": 53.1604,
      "raan_deg": 244.744,
      "arg_perigee_deg": 88.2633,
      "mean_anomaly_deg": 271.849,
      "mean_motion_rev_day": 15.30195325
    }
  ]
}